NORAD_CAT_ID,OBJECT_NAME,OBJECT_TYPE,EPOCH,MEAN_MOTION,ECCENTRICITY,INCLINATION,RA_OF_ASC_NODE,ARG_OF_PERICENTER,MEAN_ANOMALY,BSTAR,MEAN_MOTION_DOT,MEAN_MOTION_DDOT,TLE_LINE0,TLE_LINE1,TLE_LINE2,SEMIMAJOR_AXIS,PERIOD,APOGEE,PERIGEE,DECAYED
51984.0,STARLINK-3664,PAYLOAD,2023-12-03 18:23:26,15.08830642,0.0001353,53.2151,151.3232,98.4163,261.6983,-0.00013632,-2.456e-05,0.0,0 STARLINK-3664,1 51984U 22025AE  23337.76627689 -.00002456  00000-0 -13632-3 0  9994,2 51984  53.2151 151.3232 0001353  98.4163 261.6983 15.08830642 97329,6917.909,95.438,540.71,538.838,0.0
51984.0,STARLINK-3664,PAYLOAD,2023-12-04 11:52:43,15.08814706,0.0001425,53.2161,148.0523,90.0623,270.0532,-0.00020101,-3.483e-05,0.0,0 STARLINK-3664,1 51984U 22025AE  23338.49494426 -.00003483  00000-0 -20101-3 0  9996,2 51984  53.2161 148.0523 0001425  90.0623 270.0532 15.08814706 97434,6917.958,95.439,540.809,538.837,0.0
51984.0,STARLINK-3664,PAYLOAD,2023-12-05 10:08:05,15.08832882,0.0001878,53.2163,143.8894,103.5764,256.5438,0.00020496,2.975e-05,0.0,0 STARLINK-3664,1 51984U 22025AE  23339.42228781  .00002975  00000-0  20496-3 0  9999,2 51984  53.2163 143.8894 0001878 103.5764 256.5438 15.08832882 97572,6917.902,95.438,541.066,538.468,0.0
51984.0,STARLINK-3664,PAYLOAD,2023-12-06 19:31:11,15.08844372,0.0002325,53.2162,137.6482,76.047,284.078,9.4339e-05,1.214e-05,0.0,0 STARLINK-3664,1 51984U 22025AE  23340.81332398  .00001214  00000-0  94339-4 0  9997,2 51984  53.2162 137.6482 0002325  76.0470 284.0780 15.08844372 97787,6917.867,95.437,541.34,538.124,0.0
51984.0,STARLINK-3664,PAYLOAD,2023-12-08 09:40:26,15.08843242,0.000204,53.2161,130.5108,69.9015,290.2197,5.7409e-05,6.26e-06,0.0,0 STARLINK-3664,1 51984U 22025AE  23342.40308229  .00000626  00000-0  57409-4 0  9993,2 51984  53.2161 130.5108 0002040  69.9015 290.2197 15.08843242 98027,6917.87,95.437,541.147,538.324,0.0
51984.0,STARLINK-3664,PAYLOAD,2023-12-08 12:51:12,15.08840793,0.0001576,53.2158,129.9141,77.1355,282.9814,3.8015e-05,3.17e-06,0.0,0 STARLINK-3664,1 51984U 22025AE  23342.53556319  .00000317  00000-0  38015-4 0  9991,2 51984  53.2158 129.9141 0001576  77.1355 282.9814 15.08840793 96944,6917.878,95.438,540.833,538.653,0.0
51984.0,STARLINK-3664,PAYLOAD,2023-12-09 09:31:13,15.08838969,0.0001506,53.2162,126.0481,83.9397,276.1767,2.579e-05,1.22e-06,0.0,0 STARLINK-3664,1 51984U 22025AE  23343.39668436  .00000122  00000-0  25790-4 0  9990,2 51984  53.2162 126.0481 0001506  83.9397 276.1767 15.08838969 98179,6917.884,95.438,540.79,538.707,0.0
51984.0,STARLINK-3664,PAYLOAD,2023-12-09 12:41:59,15.08837813,0.0001445,53.216,125.4536,84.2996,275.8161,1.8608e-05,8e-08,0.0,0 STARLINK-3664,1 51984U 22025AE  23343.52916074  .00000008  00000-0  18608-4 0  9992,2 51984  53.2160 125.4536 0001445  84.2996 275.8161 15.08837813 97093,6917.887,95.438,540.752,538.752,0.0
51984.0,STARLINK-3664,PAYLOAD,2023-12-10 14:08:09,15.08841032,0.0001399,53.2164,120.6977,67.2223,292.8917,6.28e-05,7.12e-06,0.0,0 STARLINK-3664,1 51984U 22025AE  23344.58899777  .00000712  00000-0  62800-4 0  9994,2 51984  53.2164 120.6977 0001399  67.2223 292.8917 15.08841032 97259,6917.877,95.437,540.71,538.774,0.0
51984.0,STARLINK-3664,PAYLOAD,2023-12-10 15:43:32,15.08842216,0.0001434,53.2161,120.3991,79.6201,280.4953,7.1982e-05,8.58e-06,0.0,0 STARLINK-3664,1 51984U 22025AE  23344.65523631  .00000858  00000-0  71982-4 0  9997,2 51984  53.2161 120.3991 0001434  79.6201 280.4953 15.08842216 98363,6917.874,95.437,540.731,538.747,0.0
51984.0,STARLINK-3664,PAYLOAD,2023-12-11 13:58:56,15.08836746,0.0001411,53.2164,116.2353,88.5443,271.5711,2.1787e-05,5.9e-07,0.0,0 STARLINK-3664,1 51984U 22025AE  23345.58260101  .00000059  00000-0  21787-4 0  9991,2 51984  53.2164 116.2353 0001411  88.5443 271.5711 15.08836746 97402,6917.89,95.438,540.731,538.779,0.0
51984.0,STARLINK-3664,PAYLOAD,2023-12-11 15:34:19,15.08837026,0.0001405,53.2165,115.9382,86.111,274.0043,2.3341e-05,8.4e-07,0.0,0 STARLINK-3664,1 51984U 22025AE  23345.64884097  .00000084  00000-0  23341-4 0  9990,2 51984  53.2165 115.9382 0001405  86.1110 274.0043 15.08837026 98510,6917.889,95.438,540.726,538.783,0.0
51984.0,STARLINK-3664,PAYLOAD,2023-12-12 13:49:43,15.08838727,0.0001516,53.2177,111.7759,103.6956,256.4205,-7.202e-06,-4.03e-06,0.0,0 STARLINK-3664,1 51984U 22025AE  23346.57620113 -.00000403  00000-0 -72020-5 0  9996,2 51984  53.2177 111.7759 0001516 103.6956 256.4205 15.08838727 97557,6917.884,95.438,540.798,538.701,0.0
51984.0,STARLINK-3664,PAYLOAD,2023-12-12 15:25:06,15.08838752,0.0001473,53.2177,111.4788,99.114,261.0018,-7.2342e-06,-4.03e-06,0.0,0 STARLINK-3664,1 51984U 22025AE  23346.64244135 -.00000403  00000-0 -72342-5 0  9997,2 51984  53.2177 111.4788 0001473  99.1140 261.0018 15.08838752 97565,6917.884,95.438,540.768,538.73,0.0
51984.0,STARLINK-3664,PAYLOAD,2023-12-13 12:05:07,15.08839966,0.000141,53.2177,107.6141,104.8497,255.2652,5.3046e-05,5.56e-06,0.0,0 STARLINK-3664,1 51984U 22025AE  23347.50355825  .00000556  00000-0  53046-4 0  9998,2 51984  53.2177 107.6141 0001410 104.8497 255.2652 15.08839966 98798,6917.88,95.438,540.721,538.77,0.0
51984.0,STARLINK-3664,PAYLOAD,2023-12-13 13:40:30,15.08841679,0.0001399,53.2176,107.3166,101.5636,258.5514,6.8039e-05,7.95e-06,0.0,0 STARLINK-3664,1 51984U 22025AE  23347.56979682  .00000795  00000-0  68039-4 0  9990,2 51984  53.2176 107.3166 0001399 101.5636 258.5514 15.08841679 97703,6917.875,95.437,540.708,538.772,0.0
51984.0,STARLINK-3664,PAYLOAD,2023-12-14 13:31:17,15.08838297,0.0001796,53.2182,102.8623,125.6838,234.4322,3.0298e-05,1.94e-06,0.0,0 STARLINK-3664,1 51984U 22025AE  23348.56340050  .00000194  00000-0  30298-4 0  9991,2 51984  53.2182 102.8623 0001796 125.6838 234.4322 15.08838297 97858,6917.886,95.438,540.993,538.508,0.0
51984.0,STARLINK-3664,PAYLOAD,2023-12-15 13:22:05,15.08840604,0.0001468,53.2174,98.3976,118.0429,242.0712,-7.7619e-05,-1.523e-05,0.0,0 STARLINK-3664,1 51984U 22025AE  23349.55700577 -.00001523  00000-0 -77619-4 0  9992,2 51984  53.2174  98.3976 0001468 118.0429 242.0712 15.08840604 98008,6917.879,95.438,540.759,538.728,0.0
51984.0,STARLINK-3664,PAYLOAD,2023-12-15 14:57:29,15.08780351,0.0001657,53.2177,98.0977,81.0311,279.0869,0.000706,0.00010948,0.0,0 STARLINK-3664,1 51984U 22025AE  23349.62325643  .00010948  00000-0  70600-3 0  9998,2 51984  53.2177  98.0977 0001657  81.0311 279.0869 15.08780351 99116,6918.063,95.441,541.074,538.781,0.0
51984.0,STARLINK-3664,PAYLOAD,2023-12-16 11:37:28,15.088389,0.0001308,53.2169,94.2305,77.7275,282.3863,9.5586e-05,1.234e-05,0.0,0 STARLINK-3664,1 51984U 22025AE  23350.48436329  .00001234  00000-0  95586-4 0  9997,2 51984  53.2169  94.2305 0001308  77.7275 282.3863 15.08838900 99243,6917.884,95.438,540.654,538.844,0.0
51984.0,STARLINK-3664,PAYLOAD,2023-12-16 13:12:52,15.08841226,0.0001414,53.217,93.9333,71.0373,289.0772,0.00011512,1.545e-05,0.0,0 STARLINK-3664,1 51984U 22025AE  23350.55060210  .00001545  00000-0  11512-3 0  9998,2 51984  53.2170  93.9333 0001414  71.0373 289.0772 15.08841226 98153,6917.877,95.437,540.72,538.763,0.0
51984.0,STARLINK-3664,PAYLOAD,2023-12-16 14:48:14,15.08844073,0.0001532,53.2176,93.6349,67.4027,292.7127,0.00013547,1.869e-05,0.0,0 STARLINK-3664,1 51984U 22025AE  23350.61684013  .00001869  00000-0  13547-3 0  9997,2 51984  53.2176  93.6349 0001532  67.4027 292.7127 15.08844073 98168,6917.868,95.437,540.793,538.673,0.0
51984.0,STARLINK-3664,PAYLOAD,2023-12-17 11:28:16,15.08837186,0.0001208,53.2175,89.7683,94.1394,265.9736,1.2798e-05,-8.4e-07,0.0,0 STARLINK-3664,1 51984U 22025AE  23351.47796869 -.00000084  00000-0  12798-4 0  9992,2 51984  53.2175  89.7683 0001208  94.1394 265.9736 15.08837186 99399,6917.889,95.438,540.59,538.918,0.0
51984.0,STARLINK-3664,PAYLOAD,2023-12-17 13:03:39,15.08839492,0.0001323,53.2168,89.4725,83.0603,277.054,5.4056e-05,5.72e-06,0.0,0 STARLINK-3664,1 51984U 22025AE  23351.54420716  .00000572  00000-0  54056-4 0  9999,2 51984  53.2168  89.4725 0001323  83.0603 277.0540 15.08839492 98302,6917.882,95.438,540.662,538.832,0.0
51984.0,STARLINK-3664,PAYLOAD,2023-12-18 11:19:02,15.08852635,0.0001469,53.2175,85.3089,72.9635,287.1518,6.7519e-05,7.87e-06,0.0,0 STARLINK-3664,1 51984U 22025AE  23352.47155762  .00000787  00000-0  67519-4 0  9994,2 51984  53.2175  85.3089 0001469  72.9635 287.1518 15.08852635 99549,6917.842,95.437,540.723,538.691,0.0
51984.0,STARLINK-3664,PAYLOAD,2023-12-18 12:54:25,15.08857252,0.0001539,53.218,85.0101,72.9803,287.1358,9.3004e-05,1.193e-05,0.0,0 STARLINK-3664,1 51984U 22025AE  23352.53779367  .00001193  00000-0  93004-4 0  9994,2 51984  53.2180  85.0101 0001539  72.9803 287.1358 15.08857252 98453,6917.828,95.436,540.757,538.628,0.0
51984.0,STARLINK-3664,PAYLOAD,2023-12-19 11:09:49,15.0884288,0.0001804,53.2179,80.8441,125.3349,234.7812,1.813e-05,0.0,0.0,0 STARLINK-3664,1 51984U 22025AE  23353.46516083  .00000000  00000-0  18130-4 0  9994,2 51984  53.2179  80.8441 0001804 125.3349 234.7812 15.08842880 99695,6917.872,95.437,540.985,538.489,0.0
51984.0,STARLINK-3664,PAYLOAD,2023-12-19 12:45:13,15.08841216,0.0001618,53.2176,80.5469,121.3432,238.7718,7.926e-06,-1.62e-06,0.0,0 STARLINK-3664,1 51984U 22025AE  23353.53140216 -.00000162  00000-0  79260-5 0  9995,2 51984  53.2176  80.5469 0001618 121.3432 238.7718 15.08841216 98602,6917.877,95.437,540.861,538.622,0.0
51984.0,STARLINK-3664,PAYLOAD,2023-12-20 11:00:37,15.0883649,0.0001829,53.2191,76.389,114.9582,245.16,-0.00011123,-2.058e-05,0.0,0 STARLINK-3664,1 51984U 22025AE  23354.45877247 -.00002058  00000-0 -11123-3 0  9997,2 51984  53.2191  76.3890 0001829 114.9582 245.1600 15.08836490 99845,6917.891,95.438,541.021,538.491,0.0
51984.0,STARLINK-3664,PAYLOAD,2023-12-20 12:36:01,15.08837886,0.0001562,53.2181,76.0917,101.5281,258.5887,-0.00010916,-2.025e-05,0.0,0 STARLINK-3664,1 51984U 22025AE  23354.52501243 -.00002025  00000-0 -10916-3 0  9998,2 51984  53.2181  76.0917 0001562 101.5281 258.5887 15.08837886 98757,6917.887,95.438,540.832,538.671,0.0
